ONEWEB-0340             
1 49206U 21083W   26146.28109505  .00000062  00000+0  12460-3 0  9997
2 49206  87.9171 339.8144 0001924  91.5409 268.5944 13.18686519227087
ONEWEB-0341             
1 49207U 21083X   26146.06020635 -.00000041  00000+0 -13735-3 0  9995
2 49207  87.9163 339.8631 0001747 105.5584 254.5741 13.18686050227072
ONEWEB-0342             
1 49208U 21083Y   26146.30564829  .00000086  00000+0  17996-3 0  9991
2 49208  87.9176 278.7994 0001783  98.8528 261.2807 13.20772152233899
ONEWEB-0343             
1 49209U 21083Z   26146.06863781  .00000028  00000+0  37565-4 0  9995
2 49209  87.9167 339.8595 0001407  86.1517 273.9776 13.18685327227125
ONEWEB-0344             
1 49210U 21083AA  26146.25689206  .00000817  00000+0  22014-2 0  9993
2 49210  87.8938 324.6117 0001907  88.4063 271.7284 13.13465465228013
ONEWEB-0345             
1 49211U 21083AB  26146.24841607  .00000327  00000+0  86129-3 0  9992
2 49211  87.8949 324.5909 0001705 101.7029 258.4292 13.13469318228024
ONEWEB-0346             
1 49212U 21083AC  26146.06526369 -.00000004  00000+0 -43128-4 0  9995
2 49212  87.9160 339.8618 0002478  92.8229 267.3187 13.18685826227061
ONEWEB-0348             
1 49213U 21083AD  26146.29552942  .00000075  00000+0  15293-3 0  9994
2 49213  87.9179 278.8050 0002336 108.0564 252.0824 13.20770684233920
ONEWEB-0350             
1 49214U 21083AE  26146.25772174  .00000352  00000+0  92983-3 0  9991
2 49214  87.8953 324.5908 0001813 103.7002 256.4329 13.13468763228059
ONEWEB-0351             
1 49215U 21083AF  26146.28866204  .00000021  00000+0  20235-4 0  9998
2 49215  87.9178 278.8048 0001083 114.6179 245.5067 13.20772795233887
ONEWEB-0352             
1 49216U 21083AG  26146.23825889  .00000146  00000+0  36557-3 0  9999
2 49216  87.8942 324.6055 0001365  90.4305 269.6980 13.13469873228145
ONEWEB-0354             
1 49217U 21083AH  26146.31576006  .00000085  00000+0  17620-3 0  9995
2 49217  87.9176 278.7986 0002140 108.8547 251.2818 13.20771710233925
ONEWEB-0355             
1 49218U 21083AJ  26146.19099186  .00000165  00000+0  41566-3 0  9996
2 49218  87.8929 324.6177 0001624  96.4626 263.6688 13.13468689228016
ONEWEB-0357             
1 49219U 21083AK  26146.31239101  .00000102  00000+0  21778-3 0  9998
2 49219  87.9177 278.7936 0001687 101.0262 259.1062 13.20772006233924
ONEWEB-0332             
1 49279U 21090A   26145.91612198 -.00000040  00000+0 -14207-3 0  9990
2 49279  87.8941 294.1505 0001704  91.3670 268.7655 13.14503778224651
ONEWEB-0347             
1 49280U 21090B   26146.30228339 -.00000493  00000+0 -12436-2 0  9999
2 49280  87.9179 278.8039 0001861  91.7773 268.3574 13.20763660228150
