[{"OBJECT_NAME":"ONEWEB-0340","OBJECT_ID":"2021-083W","EPOCH":"2026-05-26T06:44:46.612320","MEAN_MOTION":13.18686519,"ECCENTRICITY":0.0001924,"INCLINATION":87.9171,"RA_OF_ASC_NODE":339.8144,"ARG_OF_PERICENTER":91.5409,"MEAN_ANOMALY":268.5944,"EPHEMERIS_TYPE":0,"CLASSIFICATION_TYPE":"U","NORAD_CAT_ID":49206,"ELEMENT_SET_NO":999,"REV_AT_EPOCH":22708,"BSTAR":0.0001246,"MEAN_MOTION_DOT":6.2e-07,"MEAN_MOTION_DDOT":0.0},{"OBJECT_NAME":"ONEWEB-0341","OBJECT_ID":"2021-083X","EPOCH":"2026-05-26T01:26:41.828640","MEAN_MOTION":13.1868605,"ECCENTRICITY":0.0001747,"INCLINATION":87.9163,"RA_OF_ASC_NODE":339.8631,"ARG_OF_PERICENTER":105.5584,"MEAN_ANOMALY":254.5741,"EPHEMERIS_TYPE":0,"CLASSIFICATION_TYPE":"U","NORAD_CAT_ID":49207,"ELEMENT_SET_NO":999,"REV_AT_EPOCH":22707,"BSTAR":-0.00013735,"MEAN_MOTION_DOT":-4.1e-07,"MEAN_MOTION_DDOT":0.0},{"OBJECT_NAME":"ONEWEB-0342","OBJECT_ID":"2021-083Y","EPOCH":"2026-05-26T07:20:08.012256","MEAN_MOTION":13.20772152,"ECCENTRICITY":0.0001783,"INCLINATION":87.9176,"RA_OF_ASC_NODE":278.7994,"ARG_OF_PERICENTER":98.8528,"MEAN_ANOMALY":261.2807,"EPHEMERIS_TYPE":0,"CLASSIFICATION_TYPE":"U","NORAD_CAT_ID":49208,"ELEMENT_SET_NO":999,"REV_AT_EPOCH":23389,"BSTAR":0.00017996,"MEAN_MOTION_DOT":8.6e-07,"MEAN_MOTION_DDOT":0.0},{"OBJECT_NAME":"ONEWEB-0343","OBJECT_ID":"2021-083Z","EPOCH":"2026-05-26T01:38:50.306784","MEAN_MOTION":13.18685327,"ECCENTRICITY":0.0001407,"INCLINATION":87.9167,"RA_OF_ASC_NODE":339.8595,"ARG_OF_PERICENTER":86.1517,"MEAN_ANOMALY":273.9776,"EPHEMERIS_TYPE":0,"CLASSIFICATION_TYPE":"U","NORAD_CAT_ID":49209,"ELEMENT_SET_NO":999,"REV_AT_EPOCH":22712,"BSTAR":3.7565e-05,"MEAN_MOTION_DOT":2.8e-07,"MEAN_MOTION_DDOT":0.0},{"OBJECT_NAME":"ONEWEB-0344","OBJECT_ID":"2021-083AA","EPOCH":"2026-05-26T06:09:55.473984","MEAN_MOTION":13.13465465,"ECCENTRICITY":0.0001907,"INCLINATION":87.8938,"RA_OF_ASC_NODE":324.6117,"ARG_OF_PERICENTER":88.4063,"MEAN_ANOMALY":271.7284,"EPHEMERIS_TYPE":0,"CLASSIFICATION_TYPE":"U","NORAD_CAT_ID":49210,"ELEMENT_SET_NO":999,"REV_AT_EPOCH":22801,"BSTAR":0.0022014,"MEAN_MOTION_DOT":8.17e-06,"MEAN_MOTION_DDOT":0.0},{"OBJECT_NAME":"ONEWEB-0345","OBJECT_ID":"2021-083AB","EPOCH":"2026-05-26T05:57:43.148448","MEAN_MOTION":13.13469318,"ECCENTRICITY":0.0001705,"INCLINATION":87.8949,"RA_OF_ASC_NODE":324.5909,"ARG_OF_PERICENTER":101.7029,"MEAN_ANOMALY":258.4292,"EPHEMERIS_TYPE":0,"CLASSIFICATION_TYPE":"U","NORAD_CAT_ID":49211,"ELEMENT_SET_NO":999,"REV_AT_EPOCH":22802,"BSTAR":0.00086129,"MEAN_MOTION_DOT":3.27e-06,"MEAN_MOTION_DDOT":0.0},{"OBJECT_NAME":"ONEWEB-0346","OBJECT_ID":"2021-083AC","EPOCH":"2026-05-26T01:33:58.782816","MEAN_MOTION":13.18685826,"ECCENTRICITY":0.0002478,"INCLINATION":87.916,"RA_OF_ASC_NODE":339.8618,"ARG_OF_PERICENTER":92.8229,"MEAN_ANOMALY":267.3187,"EPHEMERIS_TYPE":0,"CLASSIFICATION_TYPE":"U","NORAD_CAT_ID":49212,"ELEMENT_SET_NO":999,"REV_AT_EPOCH":22706,"BSTAR":-4.3128000000000004e-05,"MEAN_MOTION_DOT":-4e-08,"MEAN_MOTION_DDOT":0.0},{"OBJECT_NAME":"ONEWEB-0348","OBJECT_ID":"2021-083AD","EPOCH":"2026-05-26T07:05:33.741888","MEAN_MOTION":13.20770684,"ECCENTRICITY":0.0002336,"INCLINATION":87.9179,"RA_OF_ASC_NODE":278.805,"ARG_OF_PERICENTER":108.0564,"MEAN_ANOMALY":252.0824,"EPHEMERIS_TYPE":0,"CLASSIFICATION_TYPE":"U","NORAD_CAT_ID":49213,"ELEMENT_SET_NO":999,"REV_AT_EPOCH":23392,"BSTAR":0.00015293000000000001,"MEAN_MOTION_DOT":7.5e-07,"MEAN_MOTION_DDOT":0.0},{"OBJECT_NAME":"ONEWEB-0350","OBJECT_ID":"2021-083AE","EPOCH":"2026-05-26T06:11:07.158336","MEAN_MOTION":13.13468763,"ECCENTRICITY":0.0001813,"INCLINATION":87.8953,"RA_OF_ASC_NODE":324.5908,"ARG_OF_PERICENTER":103.7002,"MEAN_ANOMALY":256.4329,"EPHEMERIS_TYPE":0,"CLASSIFICATION_TYPE":"U","NORAD_CAT_ID":49214,"ELEMENT_SET_NO":999,"REV_AT_EPOCH":22805,"BSTAR":0.0009298300000000001,"MEAN_MOTION_DOT":3.52e-06,"MEAN_MOTION_DDOT":0.0},{"OBJECT_NAME":"ONEWEB-0351","OBJECT_ID":"2021-083AF","EPOCH":"2026-05-26T06:55:40.400256","MEAN_MOTION":13.20772795,"ECCENTRICITY":0.0001083,"INCLINATION":87.9178,"RA_OF_ASC_NODE":278.8048,"ARG_OF_PERICENTER":114.6179,"MEAN_ANOMALY":245.5067,"EPHEMERIS_TYPE":0,"CLASSIFICATION_TYPE":"U","NORAD_CAT_ID":49215,"ELEMENT_SET_NO":999,"REV_AT_EPOCH":23388,"BSTAR":2.0235000000000002e-05,"MEAN_MOTION_DOT":2.1e-07,"MEAN_MOTION_DDOT":0.0},{"OBJECT_NAME":"ONEWEB-0352","OBJECT_ID":"2021-083AG","EPOCH":"2026-05-26T05:43:05.568096","MEAN_MOTION":13.13469873,"ECCENTRICITY":0.0001365,"INCLINATION":87.8942,"RA_OF_ASC_NODE":324.6055,"ARG_OF_PERICENTER":90.4305,"MEAN_ANOMALY":269.698,"EPHEMERIS_TYPE":0,"CLASSIFICATION_TYPE":"U","NORAD_CAT_ID":49216,"ELEMENT_SET_NO":999,"REV_AT_EPOCH":22814,"BSTAR":0.00036557,"MEAN_MOTION_DOT":1.46e-06,"MEAN_MOTION_DDOT":0.0},{"OBJECT_NAME":"ONEWEB-0354","OBJECT_ID":"2021-083AH","EPOCH":"2026-05-26T07:34:41.669184","MEAN_MOTION":13.2077171,"ECCENTRICITY":0.000214,"INCLINATION":87.9176,"RA_OF_ASC_NODE":278.7986,"ARG_OF_PERICENTER":108.8547,"MEAN_ANOMALY":251.2818,"EPHEMERIS_TYPE":0,"CLASSIFICATION_TYPE":"U","NORAD_CAT_ID":49217,"ELEMENT_SET_NO":999,"REV_AT_EPOCH":23392,"BSTAR":0.0001762,"MEAN_MOTION_DOT":8.5e-07,"MEAN_MOTION_DDOT":0.0},{"OBJECT_NAME":"ONEWEB-0355","OBJECT_ID":"2021-083AJ","EPOCH":"2026-05-26T04:35:01.696704","MEAN_MOTION":13.13468689,"ECCENTRICITY":0.0001624,"INCLINATION":87.8929,"RA_OF_ASC_NODE":324.6177,"ARG_OF_PERICENTER":96.4626,"MEAN_ANOMALY":263.6688,"EPHEMERIS_TYPE":0,"CLASSIFICATION_TYPE":"U","NORAD_CAT_ID":49218,"ELEMENT_SET_NO":999,"REV_AT_EPOCH":22801,"BSTAR":0.00041566,"MEAN_MOTION_DOT":1.65e-06,"MEAN_MOTION_DDOT":0.0},{"OBJECT_NAME":"ONEWEB-0357","OBJECT_ID":"2021-083AK","EPOCH":"2026-05-26T07:29:50.583264","MEAN_MOTION":13.20772006,"ECCENTRICITY":0.0001687,"INCLINATION":87.9177,"RA_OF_ASC_NODE":278.7936,"ARG_OF_PERICENTER":101.0262,"MEAN_ANOMALY":259.1062,"EPHEMERIS_TYPE":0,"CLASSIFICATION_TYPE":"U","NORAD_CAT_ID":49219,"ELEMENT_SET_NO":999,"REV_AT_EPOCH":23392,"BSTAR":0.00021778000000000002,"MEAN_MOTION_DOT":1.02e-06,"MEAN_MOTION_DDOT":0.0},{"OBJECT_NAME":"ONEWEB-0332","OBJECT_ID":"2021-090A","EPOCH":"2026-05-25T21:59:12.939072","MEAN_MOTION":13.14503778,"ECCENTRICITY":0.0001704,"INCLINATION":87.8941,"RA_OF_ASC_NODE":294.1505,"ARG_OF_PERICENTER":91.367,"MEAN_ANOMALY":268.7655,"EPHEMERIS_TYPE":0,"CLASSIFICATION_TYPE":"U","NORAD_CAT_ID":49279,"ELEMENT_SET_NO":999,"REV_AT_EPOCH":22465,"BSTAR":-0.00014207,"MEAN_MOTION_DOT":-4e-07,"MEAN_MOTION_DDOT":0.0},{"OBJECT_NAME":"ONEWEB-0347","OBJECT_ID":"2021-090B","EPOCH":"2026-05-26T07:15:17.284896","MEAN_MOTION":13.2076366,"ECCENTRICITY":0.0001861,"INCLINATION":87.9179,"RA_OF_ASC_NODE":278.8039,"ARG_OF_PERICENTER":91.7773,"MEAN_ANOMALY":268.3574,"EPHEMERIS_TYPE":0,"CLASSIFICATION_TYPE":"U","NORAD_CAT_ID":49280,"ELEMENT_SET_NO":999,"REV_AT_EPOCH":22815,"BSTAR":-0.0012436,"MEAN_MOTION_DOT":-4.93e-06,"MEAN_MOTION_DDOT":0.0}]